{
    "links": {
        "self": "http://www.neowsapp.com/rest/v1/neo/3092400?api_key=iIulBulltgU6a56xZRHN4H3l9WmuAYTsLGpBGhQ2"
    },
    "id": "3092400",
    "neo_reference_id": "3092400",
    "name": "(2001 UF5)",
    "designation": "2001 UF5",
    "nasa_jpl_url": "http://ssd.jpl.nasa.gov/sbdb.cgi?sstr=3092400",
    "absolute_magnitude_h": 22.7,
    "estimated_diameter": {
        "kilometers": {
            "estimated_diameter_min": 0.0766575574,
            "estimated_diameter_max": 0.1714115092
        },
        "meters": {
            "estimated_diameter_min": 76.6575573531,
            "estimated_diameter_max": 171.4115092306
        },
        "miles": {
            "estimated_diameter_min": 0.0476327831,
            "estimated_diameter_max": 0.1065101409
        },
        "feet": {
            "estimated_diameter_min": 251.5011804664,
            "estimated_diameter_max": 562.3737359442
        }
    },
    "is_potentially_hazardous_asteroid": false,
    "close_approach_data": [
        {
            "close_approach_date": "2001-10-29",
            "close_approach_date_full": "2001-Oct-29 11:23",
            "epoch_date_close_approach": 1004354580000,
            "relative_velocity": {
                "kilometers_per_second": "17.7800688852",
                "kilometers_per_hour": "64008.2479866941",
                "miles_per_hour": "39772.2360892878"
            },
            "miss_distance": {
                "astronomical": "0.0195008551",
                "lunar": "7.5858326339",
                "kilometers": "2917286.386138637",
                "miles": "1812717.7035097106"
            },
            "orbiting_body": "Earth"
        }
    ],
    "orbital_data": {
        "orbit_id": "13",
        "orbit_determination_date": "2017-04-06 09:15:57",
        "first_observation_date": "2001-10-07",
        "last_observation_date": "2001-10-26",
        "data_arc_in_days": 19,
        "observations_used": 50,
        "orbit_uncertainty": "8",
        "minimum_orbit_intersection": ".00586793",
        "jupiter_tisserand_invariant": "3.192",
        "epoch_osculation": "2452202.5",
        "eccentricity": ".7024303445343973",
        "semi_major_axis": "2.322247595091411",
        "inclination": ".9208944469633491",
        "ascending_node_longitude": "56.23495906680481",
        "orbital_period": "1292.591243631516",
        "perihelion_distance": ".6910304167771755",
        "perihelion_argument": "53.24595238825946",
        "aphelion_distance": "3.953464773405646",
        "perihelion_time": "2452255.132203035371",
        "mean_anomaly": "345.3413883266758",
        "mean_motion": ".2785103193091308",
        "equinox": "J2000",
        "orbit_class": {
            "orbit_class_type": "APO",
            "orbit_class_description": "Near-Earth asteroid orbits which cross the Earth’s orbit similar to that of 1862 Apollo",
            "orbit_class_range": "a (semi-major axis) > 1.0 AU; q (perihelion) < 1.017 AU"
        }
    },
    "is_sentry_object": false
}